GEOSCAN 3 (RS92S3)      
1 64893U 25155T   26198.16222736  .00010020  00000+0  28461-3 0  9999
2 64893  97.4557 168.4129 0008543  82.2775 277.9438 15.36351018 85456
INNOSAT 3 (RS92S0)      
1 64894U 25155U   26198.17188388  .00022962  00000+0  47263-3 0  9994
2 64894  97.4502 170.4360 0008143  86.0297 274.1883 15.45917035 85599
KNACKSAT-2              
1 67683U 98067XZ  26197.98558317  .00034924  00000+0  38793-3 0  9995
2 67683  51.6276 144.2928 0007966 334.1850  25.8746 15.62531291 24936
