OBJECT_NAME,OBJECT_ID,EPOCH,MEAN_MOTION,ECCENTRICITY,INCLINATION,RA_OF_ASC_NODE,ARG_OF_PERICENTER,MEAN_ANOMALY,EPHEMERIS_TYPE,CLASSIFICATION_TYPE,NORAD_CAT_ID,ELEMENT_SET_NO,REV_AT_EPOCH,BSTAR,MEAN_MOTION_DOT,MEAN_MOTION_DDOT
GEOSCAN 3 (RS92S3),2025-155T,2026-07-17T03:53:36.443904,15.36351018,.0008543,97.4557,168.4129,82.2775,277.9438,0,U,64893,999,8545,.28461E-3,.1002E-3,0
INNOSAT 3 (RS92S0),2025-155U,2026-07-17T04:07:30.767232,15.45917035,.0008143,97.4502,170.4360,86.0297,274.1883,0,U,64894,999,8559,.47263E-3,.22962E-3,0
KNACKSAT-2,1998-067XZ,2026-07-16T23:39:14.385888,15.62531291,.0007966,51.6276,144.2928,334.1850,25.8746,0,U,67683,999,2493,.38793E-3,.34924E-3,0
